DMSP 5D-2 F14 (USA 131) 
1 24753U 97012A   19291.92283161  .00000021  00000-0  34052-4 0  9995
2 24753  99.0320 300.4831 0008932 166.6830 193.4581 14.15869115163896
NOAA 15                 
1 25338U 98030A   19291.93243114  .00000014  00000-0  24715-4 0  9998
2 25338  98.7405 312.9421 0009467 245.2594 114.7601 14.25935266114419
DMSP 5D-3 F15 (USA 147) 
1 25991U 99067A   19291.88212508 -.00000102  00000-0 -28554-4 0  9996
2 25991  98.9339 256.8526 0010833  71.5988  13.2288 14.16512481 26089
METEOSAT-8 (MSG-1)      
1 27509U 02040B   19292.09074521  .00000143  00000-0  00000+0 0  9997
2 27509   6.2995  55.0757 0000589 196.6617 209.5568  1.00273011 62854
DMSP 5D-3 F16 (USA 172) 
1 28054U 03048A   19291.96631318 -.00000040  00000-0  22923-5 0  9991
2 28054  98.8810 267.2575 0007259 183.7162 252.6614 14.13675916825521
NOAA 18                 
1 28654U 05018A   19291.83233994  .00000065  00000-0  59924-4 0  9996
2 28654  99.0819 340.5506 0014210 190.5447 169.5428 14.12459655742666
METEOSAT-9 (MSG-2)      
1 28912U 05049B   19291.78033932  .00000022  00000-0  00000-0 0  9991
2 28912   3.9126  70.8753 0001273 134.7200 105.6022  1.00272997 50632
HIMAWARI-7 (MTSAT-2)    
1 28937U 06004A   19291.92202212 -.00000240  00000-0  00000-0 0  9998
2 28937   0.0556  76.2447 0003644 134.2607 293.5974  1.00272499 50094
FORMOSAT-3 FM6          
1 29047U 06011A   19291.86986229  .00000022  00000-0  24794-4 0  9996
2 29047  71.9779 245.0942 0048413 121.4149 239.1736 14.28698450706676
FORMOSAT-3 FM1          
1 29048U 06011B   19291.74261530  .00000076  00000-0  46233-4 0  9996
2 29048  71.9657 156.5574 0042089  77.2217 283.3618 14.28657727709143
FORMOSAT-3 FM5          
1 29049U 06011C   19291.47715999  .00000054  00000-0  37544-4 0  9991
2 29049  72.0205 327.3641 0032902 108.3842 252.0877 14.28741990704894
FORMOSAT-3 FM3          
1 29050U 06011D   19291.74893935  .00000141  00000-0  39898-4 0  9991
2 29050  72.0141 137.6992 0048722  44.3054 316.1981 14.58842887720938
FORMOSAT-3 FM4          
1 29051U 06011E   19291.48210345  .00000103  00000-0  55774-4 0  9990
2 29051  72.0056 229.8676 0068996 343.3145  16.5720 14.28769181707484
FORMOSAT-3 FM2          
1 29052U 06011F   19291.63920542  .00000040  00000-0  31953-4 0  9998
2 29052  72.0333 303.0311 0038163  65.6420 294.8693 14.28869278705832
GOES 13                 
1 29155U 06018A   19291.74632601  .00000042  00000-0  00000-0 0  9994
2 29155   0.0845  80.2772 0009056 167.9304 232.4266  0.99994308 18978
METOP-A                 
1 29499U 06044A   19291.88261080 -.00000004  00000-0  17760-4 0  9992
2 29499  98.5607 341.5168 0000716 121.6988 325.5168 14.21485696674246
DMSP 5D-3 F17 (USA 191) 
1 29522U 06050A   19291.91989580  .00000003  00000-0  24840-4 0  9997
2 29522  98.8166 306.8090 0010675 142.9410 217.2502 14.14004997668431
FENGYUN 3A              
1 32958U 08026A   19292.07795680 -.00000018  00000-0  11190-4 0  9994
2 32958  98.3870 285.6555 0008282 327.3572  32.7091 14.18609504590463
FENGYUN 2E              
1 33463U 08066A   19291.86870931 -.00000200  00000-0  00000+0 0  9995
2 33463   3.8414  69.0279 0003864 268.8277  88.6300  1.00276391 39685
NOAA 19                 
1 33591U 09005A   19291.89161018 -.00000016  00000-0  16517-4 0  9993
2 33591  99.1889 286.0219 0014598  39.0395 321.1826 14.12380042550896
GOES 14                 
1 35491U 09033A   19291.61528894 -.00000092  00000-0  00000-0 0  9994
2 35491   0.2805 279.2066 0012892 301.8453 283.0971  1.00272576 37715
METEOR-M 1              
1 35865U 09049A   19292.08390789  .00000016  00000-0  26097-4 0  9991
2 35865  98.4203 284.7173 0002599 151.6548 208.4772 14.22211116523474
DMSP 5D-3 F18 (USA 210) 
1 35951U 09057A   19291.90835891  .00000023  00000-0  34861-4 0  9990
2 35951  98.6280 285.2159 0010859 347.0743  13.0150 14.13225127289424
GOES 15                 
1 36411U 10008A   19291.87219500  .00000057  00000-0  00000-0 0  9990
2 36411   0.2871 278.2946 0002524 257.5990  37.0275  1.00264607 35270
COMS 1                  
1 36744U 10032A   19291.87757623 -.00000342  00000-0  00000-0 0  9997
2 36744   0.0323 111.2790 0000987 107.1639 252.7303  1.00273433 26694
FENGYUN 3B              
1 37214U 10059A   19292.04206100  .00000003  00000-0  24840-4 0  9993
2 37214  99.0145 265.4401 0016182 233.2754 126.6940 14.15927113463378
SUOMI NPP               
1 37849U 11061A   19291.93670332  .00000016  00000-0  28404-4 0  9994
2 37849  98.7091 228.4321 0000709  97.1647 328.6373 14.19554390413224
FENGYUN 2F              
1 38049U 12002A   19289.50480497 -.00000353  00000-0  00000+0 0  9996
2 38049   1.5045  83.1639 0001192 305.2229 289.9730  1.00282082 28468
METEOSAT-10 (MSG-3)     
1 38552U 12035B   19291.88979994  .00000063  00000-0  00000-0 0  9998
2 38552   1.0844 347.3303 0002104 237.4965 131.9659  1.00272245 26496
METOP-B                 
1 38771U 12049A   19291.94118350 -.00000037  00000-0  30015-5 0  9990
2 38771  98.7287 349.4975 0001251  45.9234  75.0608 14.21480878367573
FENGYUN 3C              
1 39260U 13052A   19292.16114712 -.00000024  00000-0  91035-5 0  9997
2 39260  98.5890 346.7694 0011055 186.5755 173.5276 14.15874435314336
METEOR-M 2              
1 40069U 14037A   19292.05541734 -.00000017  00000-0  11677-4 0  9991
2 40069  98.5383 333.3322 0004545 264.9604  95.1060 14.20665704273799
HIMAWARI-8              
1 40267U 14060A   19292.16661993 -.00000273  00000-0  00000+0 0  9996
2 40267   0.0389 162.2515 0001096  65.9867 359.8133  1.00271919 18461
FENGYUN 2G              
1 40367U 14090A   19291.65585363 -.00000297  00000-0  00000+0 0  9995
2 40367   1.5077  98.3272 0002629 301.9528 321.8870  1.00282562 17632
METEOSAT-11 (MSG-4)     
1 40732U 15034A   19291.85152383  .00000001  00000-0  00000-0 0  9997
2 40732   0.7953 249.1587 0000736 274.5712 170.2008  1.00263832 15641
ELEKTRO-L 2             
1 41105U 15074A   19291.97350110 -.00000095  00000-0  00000-0 0  9991
2 41105   0.6271 102.3210 0000881  77.5931 273.7212  1.00273066 14124
HIMAWARI-9              
1 41836U 16064A   19292.16661993 -.00000273  00000-0  00000+0 0  9995
2 41836   0.0391  50.2344 0000706 159.0650  18.8300  1.00273525 10909
GOES 16                 
1 41866U 16071A   19291.83643203 -.00000246  00000-0  00000-0 0  9994
2 41866   0.0411  52.1865 0000747 202.7251 358.0646  1.00271705 10711
FENGYUN 4A              
1 41882U 16077A   19291.92931565 -.00000328  00000-0  00000-0 0  9990
2 41882   0.2220 287.0782 0002630 145.4571  33.8003  1.00266530 10587
CYGFM05                 
1 41884U 16078A   19291.97131922  .00000273  00000-0  16281-4 0  9997
2 41884  34.9557 126.0113 0015193  37.7439 322.4336 15.14467401157320
CYGFM04                 
1 41885U 16078B   19291.89137363  .00000284  00000-0  16594-4 0  9993
2 41885  34.9490 121.0091 0013461  44.9520 315.2279 15.14972445157363
CYGFM02                 
1 41886U 16078C   19291.88434077  .00000286  00000-0  16736-4 0  9995
2 41886  34.9581 122.6188 0014280  41.5651 318.6144 15.14975025157351
CYGFM01                 
1 41887U 16078D   19291.84418363  .00000276  00000-0  16485-4 0  9992
2 41887  34.9525 127.5659 0015632  37.7653 322.4153 15.14282272157299
CYGFM08                 
1 41888U 16078E   19291.83640833  .00000490  00000-0  27572-4 0  9998
2 41888  34.9495 124.4119 0014745  42.8828 317.3031 15.14692861157318
CYGFM06                 
1 41889U 16078F   19291.86201158  .00000300  00000-0  17439-4 0  9996
2 41889  34.9575 121.4390 0013230  41.0354 319.1351 15.14965691157352
CYGFM07                 
1 41890U 16078G   19291.84040352  .00000284  00000-0  16614-4 0  9998
2 41890  34.9513 120.7794 0012952  43.5906 316.5827 15.14964447157353
CYGFM03                 
1 41891U 16078H   19291.96709899  .00000284  00000-0  16615-4 0  9991
2 41891  34.9545 120.1706 0012438  43.6924 316.4770 15.14964362157370
FENGYUN 3D              
1 43010U 17072A   19292.07377823  .00000004  00000-0  22717-4 0  9992
2 43010  98.7222 229.5000 0002401  65.4089 294.7342 14.19728550 99806
NOAA 20                 
1 43013U 17073A   19291.88809082 -.00000001  00000-0  20455-4 0  9996
2 43013  98.7290 228.2278 0000871  67.0669 293.0599 14.19545746 99246
GOES 17                 
1 43226U 18022A   19291.88313340  .00000099  00000-0  00000-0 0  9990
2 43226   0.0161 349.6827 0000473 255.9981 322.1516  1.00272209  6019
FENGYUN 2H              
1 43491U 18050A   19292.08261176 -.00000128  00000-0  00000+0 0  9990
2 43491   1.2329 279.8934 0002924 244.5387 331.7698  1.00274510  5116
METOP-C                 
1 43689U 18087A   19291.82385054 -.00000044  00000-0  00000-0 0  9990
2 43689  98.6906 349.6964 0001944   3.9076 356.2108 14.21496601 49129
GEO-KOMPSAT-2A          
1 43823U 18100A   19291.92757641 -.00000342  00000-0  00000-0 0  9993
2 43823   0.0444  54.1448 0001258  83.5166 351.6709  1.00273402  3222
METEOR-M2 2             
1 44387U 19038A   19292.09555002 -.00000028  00000-0  64260-5 0  9990
2 44387  98.5835 252.4575 0002516 116.0231 244.1207 14.23334833 15059
